[{"OBJECT_NAME":"STARLINK-3593","OBJECT_ID":"2022-022AW","EPOCH":"2026-03-09T22:53:38.368320","MEAN_MOTION":15.08834291,"ECCENTRICITY":0.00012848,"INCLINATION":53.2185,"RA_OF_ASC_NODE":358.1555,"ARG_OF_PERICENTER":88.9772,"MEAN_ANOMALY":271.1368,"EPHEMERIS_TYPE":0,"CLASSIFICATION_TYPE":"U","NORAD_CAT_ID":51896,"ELEMENT_SET_NO":999,"REV_AT_EPOCH":22333,"BSTAR":-1.61995e-6,"MEAN_MOTION_DOT":-3.14e-6,"MEAN_MOTION_DDOT":0},{"OBJECT_NAME":"DELTA 1 DEB","OBJECT_ID":"1972-058BG","EPOCH":"2026-03-09T20:01:49.581696","MEAN_MOTION":14.88535429,"ECCENTRICITY":0.00965988,"INCLINATION":98.8237,"RA_OF_ASC_NODE":167.9558,"ARG_OF_PERICENTER":346.289,"MEAN_ANOMALY":13.5703,"EPHEMERIS_TYPE":0,"CLASSIFICATION_TYPE":"U","NORAD_CAT_ID":7890,"ELEMENT_SET_NO":999,"REV_AT_EPOCH":62566,"BSTAR":0.0011014398,"MEAN_MOTION_DOT":0.00011112,"MEAN_MOTION_DDOT":0}]
